STARLINK-34080          
1 64116U 25110W   25302.26075198  .00067885  00000+0  16919-2 0  9998
2 64116  53.1608 277.6961 0001386 100.8168 259.2993 15.39622901 25748
STARLINK-34122          
1 64117U 25110X   25302.45112024  .00905082  00000+0  21260-1 0  9994
2 64117  53.1604 276.7494 0003252  93.1914 266.9463 15.38892657 25780
STARLINK-33964          
1 64118U 25110Y   25301.22710827  .00037296  00000+0  93943-3 0  9996
2 64118  53.1602 282.6211 0001195  91.7591 268.3551 15.39568154 25597
STARLINK-34160          
1 64119U 25110Z   25302.45085406  .00083849  00000+0  20761-2 0  9993
2 64119  53.1605 276.7485 0001803  84.7673 275.3538 15.39724016 25782
STARLINK-34151          
1 64120U 25110AA  25302.50003471 -.01534169  00000+0 -52151-1 0  9999
2 64120  53.1589 276.4591 0001595  88.1395 213.6998 15.33363867  5888
STARLINK-34189          
1 64121U 25110AB  25302.50003471 -.01517690  00000+0 -49020-1 0  9991
2 64121  53.1588 276.4385 0001420  93.2668 219.4897 15.34925523  5882
STARLINK-33991          
1 64122U 25110AC  25301.21316885  .00059720  00000+0  14906-2 0  9993
2 64122  53.1608 282.5332 0001334  97.7231 262.3926 15.39635314 25585
STARLINK-11727 [DTC]    
1 64123U 25111A   25302.25136286  .00268696  00000+0  20231-2 0  9997
2 64123  43.0003  46.4453 0002538 288.6585  71.4007 15.70926343 25965
STARLINK-11724 [DTC]    
1 64124U 25111B   25302.41025122  .00330644  00000+0  24613-2 0  9993
2 64124  42.9941  45.0455 0002464   4.9859 355.1033 15.71012358 25990
STARLINK-11725 [DTC]    
1 64125U 25111C   25301.59959239  .00289033  00000+0  21685-2 0  9998
2 64125  42.9990  50.1476 0002141 297.0520  63.0129 15.70950026 25866
STARLINK-11717 [DTC]    
1 64126U 25111D   25302.49506589  .00241077  00000+0  18254-2 0  9999
2 64126  43.0021  44.8228 0004198 293.0440  66.9985 15.70872376 25953
STARLINK-11721 [DTC]    
1 64127U 25111E   25302.33073484  .00231728  00000+0  17534-2 0  9998
2 64127  42.9980  45.2921 0001943 312.1191  47.9511 15.70922113 25984
STARLINK-11722 [DTC]    
1 64128U 25111F   25300.69882162  .00250538  00000+0  18819-2 0  9994
2 64128  43.0011  55.4276 0001705 330.7778  29.2994 15.71039440 25678
STARLINK-11679 [DTC]    
1 64129U 25111G   25300.68288376  .00325300  00000+0  24371-2 0  9991
2 64129  43.0019  55.2990 0002600 273.8724  86.1846 15.70875054 25723
STARLINK-11735 [DTC]    
1 64130U 25111H   25300.70412335  .00332491  00000+0  24816-2 0  9993
2 64130  43.0006  55.4688 0001850 290.8675  69.1995 15.70943886 25575
STARLINK-11720 [DTC]    
1 64131U 25111J   25301.45119421  .00334830  00000+0  24811-2 0  9991
2 64131  42.9992  50.7412 0006066 298.2924  61.7331 15.71096115 25795
