[{"OBJECT_NAME":"STARLINK-34080","OBJECT_ID":"2025-110W","EPOCH":"2025-10-29T06:15:28.971072","MEAN_MOTION":15.39622901,"ECCENTRICITY":0.0001386,"INCLINATION":53.1608,"RA_OF_ASC_NODE":277.6961,"ARG_OF_PERICENTER":100.8168,"MEAN_ANOMALY":259.2993,"EPHEMERIS_TYPE":0,"CLASSIFICATION_TYPE":"U","NORAD_CAT_ID":64116,"ELEMENT_SET_NO":999,"REV_AT_EPOCH":2574,"BSTAR":0.0016919,"MEAN_MOTION_DOT":0.00067885,"MEAN_MOTION_DDOT":0},{"OBJECT_NAME":"STARLINK-34122","OBJECT_ID":"2025-110X","EPOCH":"2025-10-29T10:49:36.788736","MEAN_MOTION":15.38892657,"ECCENTRICITY":0.0003252,"INCLINATION":53.1604,"RA_OF_ASC_NODE":276.7494,"ARG_OF_PERICENTER":93.1914,"MEAN_ANOMALY":266.9463,"EPHEMERIS_TYPE":0,"CLASSIFICATION_TYPE":"U","NORAD_CAT_ID":64117,"ELEMENT_SET_NO":999,"REV_AT_EPOCH":2578,"BSTAR":0.02126,"MEAN_MOTION_DOT":0.00905082,"MEAN_MOTION_DDOT":0},{"OBJECT_NAME":"STARLINK-33964","OBJECT_ID":"2025-110Y","EPOCH":"2025-10-28T05:27:02.154528","MEAN_MOTION":15.39568154,"ECCENTRICITY":0.00011953,"INCLINATION":53.1602,"RA_OF_ASC_NODE":282.6211,"ARG_OF_PERICENTER":91.7591,"MEAN_ANOMALY":268.3551,"EPHEMERIS_TYPE":0,"CLASSIFICATION_TYPE":"U","NORAD_CAT_ID":64118,"ELEMENT_SET_NO":999,"REV_AT_EPOCH":2559,"BSTAR":0.00093942718,"MEAN_MOTION_DOT":0.00037296,"MEAN_MOTION_DDOT":0},{"OBJECT_NAME":"STARLINK-34160","OBJECT_ID":"2025-110Z","EPOCH":"2025-10-29T10:49:13.790784","MEAN_MOTION":15.39724016,"ECCENTRICITY":0.0001803,"INCLINATION":53.1605,"RA_OF_ASC_NODE":276.7485,"ARG_OF_PERICENTER":84.7673,"MEAN_ANOMALY":275.3538,"EPHEMERIS_TYPE":0,"CLASSIFICATION_TYPE":"U","NORAD_CAT_ID":64119,"ELEMENT_SET_NO":999,"REV_AT_EPOCH":2578,"BSTAR":0.0020761,"MEAN_MOTION_DOT":0.00083849,"MEAN_MOTION_DDOT":0},{"OBJECT_NAME":"STARLINK-34151","OBJECT_ID":"2025-110AA","EPOCH":"2025-10-29T12:00:02.998944","MEAN_MOTION":15.33363867,"ECCENTRICITY":0.0001595,"INCLINATION":53.1589,"RA_OF_ASC_NODE":276.4591,"ARG_OF_PERICENTER":88.1395,"MEAN_ANOMALY":213.6998,"EPHEMERIS_TYPE":0,"CLASSIFICATION_TYPE":"U","NORAD_CAT_ID":64120,"ELEMENT_SET_NO":999,"REV_AT_EPOCH":588,"BSTAR":-0.052151,"MEAN_MOTION_DOT":-0.01534169,"MEAN_MOTION_DDOT":0},{"OBJECT_NAME":"STARLINK-34189","OBJECT_ID":"2025-110AB","EPOCH":"2025-10-29T12:00:02.998944","MEAN_MOTION":15.34925523,"ECCENTRICITY":0.000142,"INCLINATION":53.1588,"RA_OF_ASC_NODE":276.4385,"ARG_OF_PERICENTER":93.2668,"MEAN_ANOMALY":219.4897,"EPHEMERIS_TYPE":0,"CLASSIFICATION_TYPE":"U","NORAD_CAT_ID":64121,"ELEMENT_SET_NO":999,"REV_AT_EPOCH":588,"BSTAR":-0.04902,"MEAN_MOTION_DOT":-0.0151769,"MEAN_MOTION_DDOT":0},{"OBJECT_NAME":"STARLINK-33991","OBJECT_ID":"2025-110AC","EPOCH":"2025-10-28T05:06:57.788640","MEAN_MOTION":15.39635314,"ECCENTRICITY":0.00013348,"INCLINATION":53.1608,"RA_OF_ASC_NODE":282.5332,"ARG_OF_PERICENTER":97.7231,"MEAN_ANOMALY":262.3926,"EPHEMERIS_TYPE":0,"CLASSIFICATION_TYPE":"U","NORAD_CAT_ID":64122,"ELEMENT_SET_NO":999,"REV_AT_EPOCH":2558,"BSTAR":0.0014905637,"MEAN_MOTION_DOT":0.0005972,"MEAN_MOTION_DDOT":0},{"OBJECT_NAME":"STARLINK-11727 [DTC]","OBJECT_ID":"2025-111A","EPOCH":"2025-10-29T06:01:57.751104","MEAN_MOTION":15.70926343,"ECCENTRICITY":0.0002538,"INCLINATION":43.0003,"RA_OF_ASC_NODE":46.4453,"ARG_OF_PERICENTER":288.6585,"MEAN_ANOMALY":71.4007,"EPHEMERIS_TYPE":0,"CLASSIFICATION_TYPE":"U","NORAD_CAT_ID":64123,"ELEMENT_SET_NO":999,"REV_AT_EPOCH":2596,"BSTAR":0.0020231,"MEAN_MOTION_DOT":0.00268696,"MEAN_MOTION_DDOT":0},{"OBJECT_NAME":"STARLINK-11724 [DTC]","OBJECT_ID":"2025-111B","EPOCH":"2025-10-29T09:50:45.705408","MEAN_MOTION":15.71012358,"ECCENTRICITY":0.0002464,"INCLINATION":42.9941,"RA_OF_ASC_NODE":45.0455,"ARG_OF_PERICENTER":4.9859,"MEAN_ANOMALY":355.1033,"EPHEMERIS_TYPE":0,"CLASSIFICATION_TYPE":"U","NORAD_CAT_ID":64124,"ELEMENT_SET_NO":999,"REV_AT_EPOCH":2599,"BSTAR":0.0024613,"MEAN_MOTION_DOT":0.00330644,"MEAN_MOTION_DDOT":0},{"OBJECT_NAME":"STARLINK-11725 [DTC]","OBJECT_ID":"2025-111C","EPOCH":"2025-10-28T14:23:24.782496","MEAN_MOTION":15.70950026,"ECCENTRICITY":0.00021417,"INCLINATION":42.999,"RA_OF_ASC_NODE":50.1476,"ARG_OF_PERICENTER":297.052,"MEAN_ANOMALY":63.0129,"EPHEMERIS_TYPE":0,"CLASSIFICATION_TYPE":"U","NORAD_CAT_ID":64125,"ELEMENT_SET_NO":999,"REV_AT_EPOCH":2586,"BSTAR":0.0021685266,"MEAN_MOTION_DOT":0.00289033,"MEAN_MOTION_DDOT":0},{"OBJECT_NAME":"STARLINK-11717 [DTC]","OBJECT_ID":"2025-111D","EPOCH":"2025-10-29T11:52:53.692896","MEAN_MOTION":15.70872376,"ECCENTRICITY":0.0004198,"INCLINATION":43.0021,"RA_OF_ASC_NODE":44.8228,"ARG_OF_PERICENTER":293.044,"MEAN_ANOMALY":66.9985,"EPHEMERIS_TYPE":0,"CLASSIFICATION_TYPE":"U","NORAD_CAT_ID":64126,"ELEMENT_SET_NO":999,"REV_AT_EPOCH":2595,"BSTAR":0.0018254,"MEAN_MOTION_DOT":0.00241077,"MEAN_MOTION_DDOT":0},{"OBJECT_NAME":"STARLINK-11721 [DTC]","OBJECT_ID":"2025-111E","EPOCH":"2025-10-29T07:56:15.490176","MEAN_MOTION":15.70922113,"ECCENTRICITY":0.0001943,"INCLINATION":42.998,"RA_OF_ASC_NODE":45.2921,"ARG_OF_PERICENTER":312.1191,"MEAN_ANOMALY":47.9511,"EPHEMERIS_TYPE":0,"CLASSIFICATION_TYPE":"U","NORAD_CAT_ID":64127,"ELEMENT_SET_NO":999,"REV_AT_EPOCH":2598,"BSTAR":0.0017534,"MEAN_MOTION_DOT":0.00231728,"MEAN_MOTION_DDOT":0},{"OBJECT_NAME":"STARLINK-11722 [DTC]","OBJECT_ID":"2025-111F","EPOCH":"2025-10-27T16:46:18.187968","MEAN_MOTION":15.7103944,"ECCENTRICITY":0.00017052,"INCLINATION":43.0011,"RA_OF_ASC_NODE":55.4276,"ARG_OF_PERICENTER":330.7778,"MEAN_ANOMALY":29.2994,"EPHEMERIS_TYPE":0,"CLASSIFICATION_TYPE":"U","NORAD_CAT_ID":64128,"ELEMENT_SET_NO":999,"REV_AT_EPOCH":2567,"BSTAR":0.0018819172,"MEAN_MOTION_DOT":0.00250538,"MEAN_MOTION_DDOT":0},{"OBJECT_NAME":"STARLINK-11679 [DTC]","OBJECT_ID":"2025-111G","EPOCH":"2025-10-27T16:23:21.156864","MEAN_MOTION":15.70875054,"ECCENTRICITY":0.00026009,"INCLINATION":43.0019,"RA_OF_ASC_NODE":55.299,"ARG_OF_PERICENTER":273.8724,"MEAN_ANOMALY":86.1846,"EPHEMERIS_TYPE":0,"CLASSIFICATION_TYPE":"U","NORAD_CAT_ID":64129,"ELEMENT_SET_NO":999,"REV_AT_EPOCH":2572,"BSTAR":0.002437097,"MEAN_MOTION_DOT":0.003253,"MEAN_MOTION_DDOT":0},{"OBJECT_NAME":"STARLINK-11735 [DTC]","OBJECT_ID":"2025-111H","EPOCH":"2025-10-27T16:53:56.257440","MEAN_MOTION":15.70943886,"ECCENTRICITY":0.00018501,"INCLINATION":43.0006,"RA_OF_ASC_NODE":55.4688,"ARG_OF_PERICENTER":290.8675,"MEAN_ANOMALY":69.1995,"EPHEMERIS_TYPE":0,"CLASSIFICATION_TYPE":"U","NORAD_CAT_ID":64130,"ELEMENT_SET_NO":999,"REV_AT_EPOCH":2557,"BSTAR":0.0024815808,"MEAN_MOTION_DOT":0.00332491,"MEAN_MOTION_DDOT":0},{"OBJECT_NAME":"STARLINK-11720 [DTC]","OBJECT_ID":"2025-111J","EPOCH":"2025-10-28T10:49:43.179744","MEAN_MOTION":15.71096115,"ECCENTRICITY":0.00060662,"INCLINATION":42.9992,"RA_OF_ASC_NODE":50.7412,"ARG_OF_PERICENTER":298.2924,"MEAN_ANOMALY":61.7331,"EPHEMERIS_TYPE":0,"CLASSIFICATION_TYPE":"U","NORAD_CAT_ID":64131,"ELEMENT_SET_NO":999,"REV_AT_EPOCH":2579,"BSTAR":0.0024811138,"MEAN_MOTION_DOT":0.0033483,"MEAN_MOTION_DDOT":0}]
